STARLINK-3730           
1 52139U 22029BD  26068.44237425 -.00001664  00000+0 -86510-4 0  9990
2 52139  53.2184  80.2299 0001182  99.5486 260.5640 15.08838480220752
2023-069B               
1 56732U 23069B   26068.54706144  .00006772  00000+0  42420-3 0  9992
2 56732  41.0081 274.4606 0011652 279.7432  80.2064 15.09579619155167
