[{"OBJECT_NAME":"STARLINK-3730","OBJECT_ID":"2022-029BD","EPOCH":"2026-03-09T10:37:01.135200","MEAN_MOTION":15.0883848,"ECCENTRICITY":0.00011822,"INCLINATION":53.2184,"RA_OF_ASC_NODE":80.2299,"ARG_OF_PERICENTER":99.5486,"MEAN_ANOMALY":260.564,"EPHEMERIS_TYPE":0,"CLASSIFICATION_TYPE":"U","NORAD_CAT_ID":52139,"ELEMENT_SET_NO":999,"REV_AT_EPOCH":22075,"BSTAR":-8.6509668e-5,"MEAN_MOTION_DOT":-1.664e-5,"MEAN_MOTION_DDOT":0},{"OBJECT_NAME":"OBJECT B","OBJECT_ID":"2023-069B","EPOCH":"2026-03-09T13:07:46.108416","MEAN_MOTION":15.09579619,"ECCENTRICITY":0.00116524,"INCLINATION":41.0081,"RA_OF_ASC_NODE":274.4606,"ARG_OF_PERICENTER":279.7432,"MEAN_ANOMALY":80.2064,"EPHEMERIS_TYPE":0,"CLASSIFICATION_TYPE":"U","NORAD_CAT_ID":56732,"ELEMENT_SET_NO":999,"REV_AT_EPOCH":15516,"BSTAR":0.00042419683,"MEAN_MOTION_DOT":6.772e-5,"MEAN_MOTION_DDOT":0}]
